HULIANWANG DIGUI-136    
1 67244U 25311J   26019.52180883  .00000012  00000+0  13236-3 0  9998
2 67244  50.0106 298.0118 0000453 348.0623  12.0264 13.87669700  3425
CZ-8A R/B               
1 67245U 25311K   26022.25785025 -.00000138  00000+0  84917-5 0  9998
2 67245  50.0047 283.1193 0088902 175.9540 184.2106 14.12607501  3863
FENGYUN 4C              
1 67246U 25312A   26022.62058747 -.00000266  00000+0  00000+0 0  9992
2 67246   0.0560 240.6637 0016761  31.5589 206.1733  1.00560898   322
CZ-3B R/B               
1 67247U 25312B   26022.25249719  .00400967  11962-5  93661-3 0  9998
2 67247  28.3909 323.6604 7181128 196.3319 115.3056  2.47467165   646
2025-313A               
1 67248U 25313A   26022.43962848  .00002909  00000+0  29289-3 0  9999
2 67248  97.5615  98.0535 0280549  84.9919 278.3246 14.66829349  3658
2025-313B               
1 67249U 25313B   26022.46891193  .00005331  00000+0  40734-3 0  9997
2 67249  97.5302  98.2088 0297638  88.8336 274.6952 14.73273569  3670
2025-313C               
1 67250U 25313C   26022.48163038  .00018900  00000+0  17494-2 0  9993
2 67250  97.6340  98.9692 0162157  98.4595 263.5037 14.85024252  3705
2025-313D               
1 67251U 25313D   26022.47851899  .00004830  00000+0  42007-3 0  9998
2 67251  97.5857  98.9534 0152394  91.0437 270.8245 14.88809275  3711
ZORKIY-2M-VPE           
1 67252U 25313E   26022.40428707  .00010161  00000+0  44936-3 0  9997
2 67252  97.4096  99.4909 0011589 132.7907 227.4306 15.21821608  3788
AIST-2T 1               
1 67253U 25313F   26022.49098539  .00067952  00000+0  65762-3 0  9993
2 67253  97.1011  99.8843 0010579 148.6985 211.4908 15.66133405  3886
AIST-2T 2               
1 67254U 25313G   26021.79112399  .00040813  00000+0  41570-3 0  9995
2 67254  97.1008  99.1724 0009122 165.1122 195.0409 15.64973261  3763
2025-313H               
1 67255U 25313H   26022.45673846  .00004016  00000+0  28236-3 0  9998
2 67255  97.3071  98.5137 0091585 111.0704 250.0344 15.02226279  3747
