CCSDS_OMM_VERS = 2.0
CREATION_DATE  = 
ORIGINATOR     = 

OBJECT_NAME    = HULIANWANG DIGUI-136
OBJECT_ID      = 2025-311J
CENTER_NAME    = EARTH
REF_FRAME      = TEME
TIME_SYSTEM    = UTC
MEAN_ELEMENT_THEORY = SGP/SGP4

EPOCH          = 2026-01-19T12:31:24.282912
MEAN_MOTION    = 13.87669700
ECCENTRICITY   = .00004531
INCLINATION    = 50.0106
RA_OF_ASC_NODE = 298.0118
ARG_OF_PERICENTER = 348.0623
MEAN_ANOMALY   = 12.0264

EPHEMERIS_TYPE = 0
CLASSIFICATION_TYPE = U
NORAD_CAT_ID   = 67244
ELEMENT_SET_NO = 999
REV_AT_EPOCH   = 342
BSTAR          = .13236406E-3
MEAN_MOTION_DOT = .12E-6
MEAN_MOTION_DDOT = 0

CCSDS_OMM_VERS = 2.0
CREATION_DATE  = 
ORIGINATOR     = 

OBJECT_NAME    = CZ-8A R/B
OBJECT_ID      = 2025-311K
CENTER_NAME    = EARTH
REF_FRAME      = TEME
TIME_SYSTEM    = UTC
MEAN_ELEMENT_THEORY = SGP/SGP4

EPOCH          = 2026-01-22T06:11:18.261600
MEAN_MOTION    = 14.12607501
ECCENTRICITY   = .00889026
INCLINATION    = 50.0047
RA_OF_ASC_NODE = 283.1193
ARG_OF_PERICENTER = 175.9540
MEAN_ANOMALY   = 184.2106

EPHEMERIS_TYPE = 0
CLASSIFICATION_TYPE = U
NORAD_CAT_ID   = 67245
ELEMENT_SET_NO = 999
REV_AT_EPOCH   = 386
BSTAR          = .8491661E-5
MEAN_MOTION_DOT = -.138E-5
MEAN_MOTION_DDOT = 0

CCSDS_OMM_VERS = 2.0
CREATION_DATE  = 
ORIGINATOR     = 

OBJECT_NAME    = FENGYUN 4C
OBJECT_ID      = 2025-312A
CENTER_NAME    = EARTH
REF_FRAME      = TEME
TIME_SYSTEM    = UTC
MEAN_ELEMENT_THEORY = SGP/SGP4

EPOCH          = 2026-01-22T14:53:38.757408
MEAN_MOTION    = 1.00560898
ECCENTRICITY   = .0016761
INCLINATION    = 0.0560
RA_OF_ASC_NODE = 240.6637
ARG_OF_PERICENTER = 31.5589
MEAN_ANOMALY   = 206.1733

EPHEMERIS_TYPE = 0
CLASSIFICATION_TYPE = U
NORAD_CAT_ID   = 67246
ELEMENT_SET_NO = 999
REV_AT_EPOCH   = 32
BSTAR          = 0
MEAN_MOTION_DOT = -.266E-5
MEAN_MOTION_DDOT = 0

CCSDS_OMM_VERS = 2.0
CREATION_DATE  = 
ORIGINATOR     = 

OBJECT_NAME    = CZ-3B R/B
OBJECT_ID      = 2025-312B
CENTER_NAME    = EARTH
REF_FRAME      = TEME
TIME_SYSTEM    = UTC
MEAN_ELEMENT_THEORY = SGP/SGP4

EPOCH          = 2026-01-22T06:03:35.757216
MEAN_MOTION    = 2.47467165
ECCENTRICITY   = .7181128
INCLINATION    = 28.3909
RA_OF_ASC_NODE = 323.6604
ARG_OF_PERICENTER = 196.3319
MEAN_ANOMALY   = 115.3056

EPHEMERIS_TYPE = 0
CLASSIFICATION_TYPE = U
NORAD_CAT_ID   = 67247
ELEMENT_SET_NO = 999
REV_AT_EPOCH   = 64
BSTAR          = .93661E-3
MEAN_MOTION_DOT = .400967E-2
MEAN_MOTION_DDOT = .11962E-5

CCSDS_OMM_VERS = 2.0
CREATION_DATE  = 
ORIGINATOR     = 

OBJECT_NAME    = 2025-313A
OBJECT_ID      = 2025-313A
CENTER_NAME    = EARTH
REF_FRAME      = TEME
TIME_SYSTEM    = UTC
MEAN_ELEMENT_THEORY = SGP/SGP4

EPOCH          = 2026-01-22T10:33:03.900672
MEAN_MOTION    = 14.66829349
ECCENTRICITY   = .0280549
INCLINATION    = 97.5615
RA_OF_ASC_NODE = 98.0535
ARG_OF_PERICENTER = 84.9919
MEAN_ANOMALY   = 278.3246

EPHEMERIS_TYPE = 0
CLASSIFICATION_TYPE = U
NORAD_CAT_ID   = 67248
ELEMENT_SET_NO = 999
REV_AT_EPOCH   = 365
BSTAR          = .29289E-3
MEAN_MOTION_DOT = .2909E-4
MEAN_MOTION_DDOT = 0

CCSDS_OMM_VERS = 2.0
CREATION_DATE  = 
ORIGINATOR     = 

OBJECT_NAME    = 2025-313B
OBJECT_ID      = 2025-313B
CENTER_NAME    = EARTH
REF_FRAME      = TEME
TIME_SYSTEM    = UTC
MEAN_ELEMENT_THEORY = SGP/SGP4

EPOCH          = 2026-01-22T11:15:13.990752
MEAN_MOTION    = 14.73273569
ECCENTRICITY   = .0297638
INCLINATION    = 97.5302
RA_OF_ASC_NODE = 98.2088
ARG_OF_PERICENTER = 88.8336
MEAN_ANOMALY   = 274.6952

EPHEMERIS_TYPE = 0
CLASSIFICATION_TYPE = U
NORAD_CAT_ID   = 67249
ELEMENT_SET_NO = 999
REV_AT_EPOCH   = 367
BSTAR          = .40734E-3
MEAN_MOTION_DOT = .5331E-4
MEAN_MOTION_DDOT = 0

CCSDS_OMM_VERS = 2.0
CREATION_DATE  = 
ORIGINATOR     = 

OBJECT_NAME    = 2025-313C
OBJECT_ID      = 2025-313C
CENTER_NAME    = EARTH
REF_FRAME      = TEME
TIME_SYSTEM    = UTC
MEAN_ELEMENT_THEORY = SGP/SGP4

EPOCH          = 2026-01-22T11:33:32.864832
MEAN_MOTION    = 14.85024252
ECCENTRICITY   = .0162157
INCLINATION    = 97.6340
RA_OF_ASC_NODE = 98.9692
ARG_OF_PERICENTER = 98.4595
MEAN_ANOMALY   = 263.5037

EPHEMERIS_TYPE = 0
CLASSIFICATION_TYPE = U
NORAD_CAT_ID   = 67250
ELEMENT_SET_NO = 999
REV_AT_EPOCH   = 370
BSTAR          = .17494E-2
MEAN_MOTION_DOT = .189E-3
MEAN_MOTION_DDOT = 0

CCSDS_OMM_VERS = 2.0
CREATION_DATE  = 
ORIGINATOR     = 

OBJECT_NAME    = 2025-313D
OBJECT_ID      = 2025-313D
CENTER_NAME    = EARTH
REF_FRAME      = TEME
TIME_SYSTEM    = UTC
MEAN_ELEMENT_THEORY = SGP/SGP4

EPOCH          = 2026-01-22T11:29:04.040736
MEAN_MOTION    = 14.88809275
ECCENTRICITY   = .0152394
INCLINATION    = 97.5857
RA_OF_ASC_NODE = 98.9534
ARG_OF_PERICENTER = 91.0437
MEAN_ANOMALY   = 270.8245

EPHEMERIS_TYPE = 0
CLASSIFICATION_TYPE = U
NORAD_CAT_ID   = 67251
ELEMENT_SET_NO = 999
REV_AT_EPOCH   = 371
BSTAR          = .42007E-3
MEAN_MOTION_DOT = .483E-4
MEAN_MOTION_DDOT = 0

CCSDS_OMM_VERS = 2.0
CREATION_DATE  = 
ORIGINATOR     = 

OBJECT_NAME    = ZORKIY-2M-VPE
OBJECT_ID      = 2025-313E
CENTER_NAME    = EARTH
REF_FRAME      = TEME
TIME_SYSTEM    = UTC
MEAN_ELEMENT_THEORY = SGP/SGP4

EPOCH          = 2026-01-22T09:42:10.402848
MEAN_MOTION    = 15.21821608
ECCENTRICITY   = .0011589
INCLINATION    = 97.4096
RA_OF_ASC_NODE = 99.4909
ARG_OF_PERICENTER = 132.7907
MEAN_ANOMALY   = 227.4306

EPHEMERIS_TYPE = 0
CLASSIFICATION_TYPE = U
NORAD_CAT_ID   = 67252
ELEMENT_SET_NO = 999
REV_AT_EPOCH   = 378
BSTAR          = .44936E-3
MEAN_MOTION_DOT = .10161E-3
MEAN_MOTION_DDOT = 0

CCSDS_OMM_VERS = 2.0
CREATION_DATE  = 
ORIGINATOR     = 

OBJECT_NAME    = AIST-2T 1
OBJECT_ID      = 2025-313F
CENTER_NAME    = EARTH
REF_FRAME      = TEME
TIME_SYSTEM    = UTC
MEAN_ELEMENT_THEORY = SGP/SGP4

EPOCH          = 2026-01-22T11:47:01.137696
MEAN_MOTION    = 15.66133405
ECCENTRICITY   = .0010579
INCLINATION    = 97.1011
RA_OF_ASC_NODE = 99.8843
ARG_OF_PERICENTER = 148.6985
MEAN_ANOMALY   = 211.4908

EPHEMERIS_TYPE = 0
CLASSIFICATION_TYPE = U
NORAD_CAT_ID   = 67253
ELEMENT_SET_NO = 999
REV_AT_EPOCH   = 388
BSTAR          = .65762E-3
MEAN_MOTION_DOT = .67952E-3
MEAN_MOTION_DDOT = 0

CCSDS_OMM_VERS = 2.0
CREATION_DATE  = 
ORIGINATOR     = 

OBJECT_NAME    = AIST-2T 2
OBJECT_ID      = 2025-313G
CENTER_NAME    = EARTH
REF_FRAME      = TEME
TIME_SYSTEM    = UTC
MEAN_ELEMENT_THEORY = SGP/SGP4

EPOCH          = 2026-01-21T18:59:13.112736
MEAN_MOTION    = 15.64973261
ECCENTRICITY   = .00091224
INCLINATION    = 97.1008
RA_OF_ASC_NODE = 99.1724
ARG_OF_PERICENTER = 165.1122
MEAN_ANOMALY   = 195.0409

EPHEMERIS_TYPE = 0
CLASSIFICATION_TYPE = U
NORAD_CAT_ID   = 67254
ELEMENT_SET_NO = 999
REV_AT_EPOCH   = 376
BSTAR          = .41569676E-3
MEAN_MOTION_DOT = .40813E-3
MEAN_MOTION_DDOT = 0

CCSDS_OMM_VERS = 2.0
CREATION_DATE  = 
ORIGINATOR     = 

OBJECT_NAME    = 2025-313H
OBJECT_ID      = 2025-313H
CENTER_NAME    = EARTH
REF_FRAME      = TEME
TIME_SYSTEM    = UTC
MEAN_ELEMENT_THEORY = SGP/SGP4

EPOCH          = 2026-01-22T10:57:42.202944
MEAN_MOTION    = 15.02226279
ECCENTRICITY   = .0091585
INCLINATION    = 97.3071
RA_OF_ASC_NODE = 98.5137
ARG_OF_PERICENTER = 111.0704
MEAN_ANOMALY   = 250.0344

EPHEMERIS_TYPE = 0
CLASSIFICATION_TYPE = U
NORAD_CAT_ID   = 67255
ELEMENT_SET_NO = 999
REV_AT_EPOCH   = 374
BSTAR          = .28236E-3
MEAN_MOTION_DOT = .4016E-4
MEAN_MOTION_DDOT = 0

